0 FENGYUN 1C DEB
1 30996U 99025BCN 13283.16320501  .00001362  00000-0  62152-3 0  3273
2 30996 098.9366 002.5032 0059138 181.9043 208.5718 14.22341883341458
0 FENGYUN 1C DEB
1 30996U 99025BCN 13285.20834155  .00001325  00000-0  60515-3 0  3286
2 30996 098.9367 004.5761 0059206 176.0814 240.5068 14.22347023341745
0 FENGYUN 1C DEB
1 30996U 99025BCN 13286.47634383  .00001373  00000-0  62653-3 0  3296
2 30996 098.9367 005.8614 0059254 172.4881 253.2010 14.22350403341927
0 FENGYUN 1C DEB
1 30996U 99025BCN 13288.15781682  .00002146  00000-0  96734-3 0  3306
2 30996 098.9365 007.5661 0059286 167.6726 223.1124 14.22358919342164
0 FENGYUN 1C DEB
1 30996U 99025BCN 13290.48634384  .00001791  00000-0  81064-3 0  3317
2 30996 098.9359 009.9266 0059412 161.0109 266.3082 14.22367562342490
0 FENGYUN 1C DEB
1 30996U 99025BCN 13292.17387347  .00001820  00000-0  82339-3 0  3329
2 30996 098.9356 011.6376 0059462 156.2130 267.3036 14.22372948342735
0 FENGYUN 1C DEB
1 30996U 99025BCN 13293.43948847  .00001977  00000-0  89214-3 0  3330
2 30996 098.9355 012.9206 0059455 152.6816 267.8441 14.22377960342917
0 FENGYUN 1C DEB
1 30996U 99025BCN 13295.19703198  .00002022  00000-0  91185-3 0  3346
2 30996 098.9351 014.7011 0059511 147.6847 267.4143 14.22384816343169
